[Satellite]
VERSION=1.1
NAME=MOLNIYA 1-90
NICKNAME=MOLNIYA 1-90
TLE1=1 24960U 97054A   18020.93152365  .00000139  00000-0  44018-4 0  9995
TLE2=2 24960  62.6658 210.7355 6505668 293.4697  12.9762  3.18678253156827
